[{"OBJECT_NAME":"STARLINK-34483","OBJECT_ID":"2025-126Z","EPOCH":"2026-03-09T22:46:29.340480","MEAN_MOTION":14.98335806,"ECCENTRICITY":0.00030453,"INCLINATION":70.0033,"RA_OF_ASC_NODE":33.6795,"ARG_OF_PERICENTER":257.4364,"MEAN_ANOMALY":102.6455,"EPHEMERIS_TYPE":0,"CLASSIFICATION_TYPE":"U","NORAD_CAT_ID":64367,"ELEMENT_SET_NO":999,"REV_AT_EPOCH":4072,"BSTAR":0.00098677187,"MEAN_MOTION_DOT":0.00011702,"MEAN_MOTION_DDOT":0},{"OBJECT_NAME":"COSMOS 2251 DEB","OBJECT_ID":"1993-036BTC","EPOCH":"2026-03-06T21:15:32.065056","MEAN_MOTION":14.78300657,"ECCENTRICITY":0.00931311,"INCLINATION":74.0491,"RA_OF_ASC_NODE":271.5054,"ARG_OF_PERICENTER":315.1951,"MEAN_ANOMALY":44.1729,"EPHEMERIS_TYPE":0,"CLASSIFICATION_TYPE":"U","NORAD_CAT_ID":38212,"ELEMENT_SET_NO":999,"REV_AT_EPOCH":82553,"BSTAR":0.00033586703,"MEAN_MOTION_DOT":2.587e-5,"MEAN_MOTION_DDOT":0}]
